QIANFAN-81              
1 63167U 25046J   25228.57900144  .00000162  00000+0  23171-3 0  9994
2 63167  88.9864 332.0550 0016766 103.5279 256.7741 13.50964463 31534
QIANFAN-82              
1 63168U 25046K   25228.53774268  .00000164  00000+0  23509-3 0  9994
2 63168  88.9864 332.1026 0014924 110.6260 249.6494 13.50961366 31510
QIANFAN-83              
1 63169U 25046L   25228.56271047  .00000186  00000+0  22595-3 0  9993
2 63169  88.9864 332.1079 0016211 103.1821 257.1146 13.61936499 31519
QIANFAN-84              
1 63170U 25046M   25228.56653893  .00000159  00000+0  22781-3 0  9995
2 63170  88.9864 332.2328 0017884 107.2975 253.0135 13.50968642 31449
QIANFAN-85              
1 63171U 25046N   25228.56254153  .00000152  00000+0  21633-3 0  9990
2 63171  88.9864 332.1054 0015265 109.6211 250.6589 13.50962391 31514
QIANFAN-86              
1 63172U 25046P   25228.57076480  .00000162  00000+0  23267-3 0  9993
2 63172  88.9866 331.9640 0013152 113.3085 246.9452 13.50962834 31596
QIANFAN-87              
1 63173U 25046Q   25228.54188061  .00000167  00000+0  23943-3 0  9996
2 63173  88.9862 332.0830 0013862 108.9818 251.2836 13.50959436 31520
QIANFAN-88              
1 63174U 25046R   25228.55846970  .00000144  00000+0  20451-3 0  9994
2 63174  88.9865 332.0330 0014229 115.8565 244.4055 13.50966848 31558
